{"type": "FeatureCollection", "features": [{"type": "Feature", "geometry": {"type": "Point", "coordinates": [-77.1133, 38.8284]}, "properties": {"rank": 1, "zone_id": "148", "location": "Arlington", "score": 94.4, "daily_kwh": 48000, "lmi_pct": "92%", "households": 460, "tier": "Tier1"}}, {"type": "Feature", "geometry": {"type": "Point", "coordinates": [-77.427, 37.6055]}, "properties": {"rank": 2, "zone_id": "86", "location": "Richmond", "score": 94.2, "daily_kwh": 48000, "lmi_pct": "97%", "households": 974, "tier": "Tier1"}}, {"type": "Feature", "geometry": {"type": "Point", "coordinates": [-77.084, 38.8871]}, "properties": {"rank": 3, "zone_id": "108", "location": "Arlington", "score": 89.8, "daily_kwh": 48000, "lmi_pct": "75%", "households": 750, "tier": "Tier1"}}, {"type": "Feature", "geometry": {"type": "Point", "coordinates": [-77.1248, 38.8154]}, "properties": {"rank": 4, "zone_id": "74", "location": "Arlington", "score": 89.8, "daily_kwh": 48000, "lmi_pct": "75%", "households": 750, "tier": "Tier1"}}, {"type": "Feature", "geometry": {"type": "Point", "coordinates": [-77.0511, 38.8128]}, "properties": {"rank": 5, "zone_id": "76", "location": "Alexandria", "score": 83.0, "daily_kwh": 48000, "lmi_pct": "58%", "households": 584, "tier": "Tier1"}}, {"type": "Feature", "geometry": {"type": "Point", "coordinates": [-77.1089, 38.8138]}, "properties": {"rank": 6, "zone_id": "66", "location": "Alexandria", "score": 80.9, "daily_kwh": 48000, "lmi_pct": "75%", "households": 1131, "tier": "Tier1"}}, {"type": "Feature", "geometry": {"type": "Point", "coordinates": [-77.1435, 38.8555]}, "properties": {"rank": 7, "zone_id": "46", "location": "Arlington", "score": 77.5, "daily_kwh": 48000, "lmi_pct": "86%", "households": 1292, "tier": "Tier1"}}, {"type": "Feature", "geometry": {"type": "Point", "coordinates": [-77.0885, 38.7612]}, "properties": {"rank": 8, "zone_id": "113", "location": "Alexandria", "score": 77.3, "daily_kwh": 48000, "lmi_pct": "66%", "households": 658, "tier": "Tier1"}}, {"type": "Feature", "geometry": {"type": "Point", "coordinates": [-77.1472, 38.8214]}, "properties": {"rank": 9, "zone_id": "260", "location": "Arlington", "score": 74.3, "daily_kwh": 48000, "lmi_pct": "72%", "households": 360, "tier": "Tier2"}}, {"type": "Feature", "geometry": {"type": "Point", "coordinates": [-77.2166, 38.6987]}, "properties": {"rank": 10, "zone_id": "188", "location": "Fairfax", "score": 72.9, "daily_kwh": 48000, "lmi_pct": "62%", "households": 308, "tier": "Tier2"}}, {"type": "Feature", "geometry": {"type": "Point", "coordinates": [-77.2985, 38.5928]}, "properties": {"rank": 11, "zone_id": "150", "location": "Manassas", "score": 72.4, "daily_kwh": 48000, "lmi_pct": "82%", "households": 411, "tier": "Tier2"}}, {"type": "Feature", "geometry": {"type": "Point", "coordinates": [-77.1435, 38.8422]}, "properties": {"rank": 12, "zone_id": "245", "location": "Arlington", "score": 72.2, "daily_kwh": 48000, "lmi_pct": "61%", "households": 304, "tier": "Tier2"}}, {"type": "Feature", "geometry": {"type": "Point", "coordinates": [-77.0815, 38.7824]}, "properties": {"rank": 13, "zone_id": "218", "location": "Alexandria", "score": 71.9, "daily_kwh": 48000, "lmi_pct": "68%", "households": 340, "tier": "Tier2"}}, {"type": "Feature", "geometry": {"type": "Point", "coordinates": [-77.0704, 38.787]}, "properties": {"rank": 14, "zone_id": "214", "location": "Alexandria", "score": 71.5, "daily_kwh": 48000, "lmi_pct": "60%", "households": 299, "tier": "Tier2"}}, {"type": "Feature", "geometry": {"type": "Point", "coordinates": [-77.0802, 38.7588]}, "properties": {"rank": 15, "zone_id": "104", "location": "Alexandria", "score": 71.5, "daily_kwh": 48000, "lmi_pct": "84%", "households": 838, "tier": "Tier2"}}, {"type": "Feature", "geometry": {"type": "Point", "coordinates": [-77.2309, 38.8553]}, "properties": {"rank": 16, "zone_id": "171", "location": "Fairfax", "score": 71.3, "daily_kwh": 48000, "lmi_pct": "60%", "households": 302, "tier": "Tier2"}}, {"type": "Feature", "geometry": {"type": "Point", "coordinates": [-77.5581, 37.6472]}, "properties": {"rank": 17, "zone_id": "273", "location": "Ashland", "score": 70.7, "daily_kwh": 48000, "lmi_pct": "68%", "households": 338, "tier": "Tier2"}}, {"type": "Feature", "geometry": {"type": "Point", "coordinates": [-76.3985, 37.0534]}, "properties": {"rank": 18, "zone_id": "123", "location": "Newport News", "score": 70.3, "daily_kwh": 48000, "lmi_pct": "77%", "households": 766, "tier": "Tier2"}}, {"type": "Feature", "geometry": {"type": "Point", "coordinates": [-77.0917, 38.8382]}, "properties": {"rank": 19, "zone_id": "264", "location": "Arlington", "score": 70.2, "daily_kwh": 48000, "lmi_pct": "78%", "households": 389, "tier": "Tier2"}}, {"type": "Feature", "geometry": {"type": "Point", "coordinates": [-78.5001, 38.0673]}, "properties": {"rank": 20, "zone_id": "282", "location": "Charlottesville", "score": 69.7, "daily_kwh": 48000, "lmi_pct": "81%", "households": 406, "tier": "Tier2"}}, {"type": "Feature", "geometry": {"type": "Point", "coordinates": [-77.107, 38.8733]}, "properties": {"rank": 21, "zone_id": "119", "location": "Arlington", "score": 69.6, "daily_kwh": 48000, "lmi_pct": "60%", "households": 598, "tier": "Tier2"}}, {"type": "Feature", "geometry": {"type": "Point", "coordinates": [-77.0719, 38.8429]}, "properties": {"rank": 22, "zone_id": "22", "location": "Arlington", "score": 69.4, "daily_kwh": 48000, "lmi_pct": "69%", "households": 2429, "tier": "Tier2"}}, {"type": "Feature", "geometry": {"type": "Point", "coordinates": [-77.1506, 38.8697]}, "properties": {"rank": 23, "zone_id": "35", "location": "Arlington", "score": 69.4, "daily_kwh": 48000, "lmi_pct": "73%", "households": 1832, "tier": "Tier2"}}, {"type": "Feature", "geometry": {"type": "Point", "coordinates": [-75.9923, 36.8538]}, "properties": {"rank": 24, "zone_id": "288", "location": "Virginia Beach", "score": 69.4, "daily_kwh": 48000, "lmi_pct": "77%", "households": 383, "tier": "Tier2"}}, {"type": "Feature", "geometry": {"type": "Point", "coordinates": [-77.3367, 38.9711]}, "properties": {"rank": 25, "zone_id": "216", "location": "Herndon", "score": 69.2, "daily_kwh": 48000, "lmi_pct": "78%", "households": 388, "tier": "Tier2"}}, {"type": "Feature", "geometry": {"type": "Point", "coordinates": [-77.0862, 38.8791]}, "properties": {"rank": 26, "zone_id": "187", "location": "Arlington", "score": 68.9, "daily_kwh": 48000, "lmi_pct": "77%", "households": 383, "tier": "Tier2"}}, {"type": "Feature", "geometry": {"type": "Point", "coordinates": [-77.0596, 38.861]}, "properties": {"rank": 27, "zone_id": "79", "location": "Arlington", "score": 68.9, "daily_kwh": 48000, "lmi_pct": "58%", "households": 576, "tier": "Tier2"}}, {"type": "Feature", "geometry": {"type": "Point", "coordinates": [-76.2507, 36.9406]}, "properties": {"rank": 28, "zone_id": "65", "location": "Norfolk", "score": 68.2, "daily_kwh": 48000, "lmi_pct": "65%", "households": 980, "tier": "Tier2"}}, {"type": "Feature", "geometry": {"type": "Point", "coordinates": [-77.2178, 38.8222]}, "properties": {"rank": 29, "zone_id": "122", "location": "Fairfax", "score": 68.1, "daily_kwh": 48000, "lmi_pct": "67%", "households": 669, "tier": "Tier2"}}, {"type": "Feature", "geometry": {"type": "Point", "coordinates": [-76.0374, 36.8489]}, "properties": {"rank": 30, "zone_id": "41", "location": "Virginia Beach", "score": 67.8, "daily_kwh": 48000, "lmi_pct": "72%", "households": 1439, "tier": "Tier2"}}, {"type": "Feature", "geometry": {"type": "Point", "coordinates": [-76.4211, 37.0972]}, "properties": {"rank": 31, "zone_id": "62", "location": "Newport News", "score": 66.9, "daily_kwh": 48000, "lmi_pct": "71%", "households": 1066, "tier": "Tier2"}}, {"type": "Feature", "geometry": {"type": "Point", "coordinates": [-77.3082, 38.8665]}, "properties": {"rank": 32, "zone_id": "247", "location": "Fairfax", "score": 66.7, "daily_kwh": 48000, "lmi_pct": "85%", "households": 424, "tier": "Tier2"}}, {"type": "Feature", "geometry": {"type": "Point", "coordinates": [-77.4871, 39.0069]}, "properties": {"rank": 33, "zone_id": "284", "location": "Sterling", "score": 66.6, "daily_kwh": 48000, "lmi_pct": "53%", "households": 264, "tier": "Tier2"}}, {"type": "Feature", "geometry": {"type": "Point", "coordinates": [-76.1629, 36.8676]}, "properties": {"rank": 34, "zone_id": "81", "location": "Norfolk", "score": 66.4, "daily_kwh": 48000, "lmi_pct": "71%", "households": 710, "tier": "Tier2"}}, {"type": "Feature", "geometry": {"type": "Point", "coordinates": [-77.4824, 38.7486]}, "properties": {"rank": 35, "zone_id": "110", "location": "Manassas", "score": 66.1, "daily_kwh": 48000, "lmi_pct": "76%", "households": 756, "tier": "Tier2"}}, {"type": "Feature", "geometry": {"type": "Point", "coordinates": [-77.5487, 39.1075]}, "properties": {"rank": 36, "zone_id": "38", "location": "Sterling", "score": 65.1, "daily_kwh": 48000, "lmi_pct": "70%", "households": 1406, "tier": "Tier2"}}, {"type": "Feature", "geometry": {"type": "Point", "coordinates": [-77.4095, 38.9476]}, "properties": {"rank": 37, "zone_id": "194", "location": "Herndon", "score": 65.1, "daily_kwh": 48000, "lmi_pct": "59%", "households": 296, "tier": "Tier2"}}, {"type": "Feature", "geometry": {"type": "Point", "coordinates": [-76.107, 36.8164]}, "properties": {"rank": 38, "zone_id": "90", "location": "Virginia Beach", "score": 64.8, "daily_kwh": 48000, "lmi_pct": "56%", "households": 564, "tier": "Tier2"}}, {"type": "Feature", "geometry": {"type": "Point", "coordinates": [-75.9875, 36.8427]}, "properties": {"rank": 39, "zone_id": "48", "location": "Virginia Beach", "score": 64.7, "daily_kwh": 48000, "lmi_pct": "63%", "households": 950, "tier": "Tier2"}}, {"type": "Feature", "geometry": {"type": "Point", "coordinates": [-77.3929, 38.9664]}, "properties": {"rank": 40, "zone_id": "213", "location": "Herndon", "score": 63.8, "daily_kwh": 48000, "lmi_pct": "76%", "households": 381, "tier": "Tier2"}}, {"type": "Feature", "geometry": {"type": "Point", "coordinates": [-77.3678, 38.8603]}, "properties": {"rank": 41, "zone_id": "172", "location": "Fairfax", "score": 63.7, "daily_kwh": 48000, "lmi_pct": "74%", "households": 372, "tier": "Tier2"}}, {"type": "Feature", "geometry": {"type": "Point", "coordinates": [-77.5348, 37.6878]}, "properties": {"rank": 42, "zone_id": "272", "location": "Ashland", "score": 63.5, "daily_kwh": 48000, "lmi_pct": "79%", "households": 396, "tier": "Tier2"}}, {"type": "Feature", "geometry": {"type": "Point", "coordinates": [-77.401, 39.0006]}, "properties": {"rank": 43, "zone_id": "94", "location": "Sterling", "score": 63.4, "daily_kwh": 48000, "lmi_pct": "70%", "households": 698, "tier": "Tier2"}}, {"type": "Feature", "geometry": {"type": "Point", "coordinates": [-76.0828, 36.8053]}, "properties": {"rank": 44, "zone_id": "83", "location": "Virginia Beach", "score": 63.4, "daily_kwh": 48000, "lmi_pct": "62%", "households": 623, "tier": "Tier2"}}, {"type": "Feature", "geometry": {"type": "Point", "coordinates": [-76.2395, 36.7031]}, "properties": {"rank": 45, "zone_id": "78", "location": "Chesapeake", "score": 62.9, "daily_kwh": 48000, "lmi_pct": "67%", "households": 666, "tier": "Tier2"}}, {"type": "Feature", "geometry": {"type": "Point", "coordinates": [-77.1242, 38.8342]}, "properties": {"rank": 46, "zone_id": "6", "location": "Arlington", "score": 62.8, "daily_kwh": 48000, "lmi_pct": "68%", "households": 12886, "tier": "Tier2"}}, {"type": "Feature", "geometry": {"type": "Point", "coordinates": [-78.4493, 38.036]}, "properties": {"rank": 47, "zone_id": "280", "location": "Charlottesville", "score": 62.6, "daily_kwh": 48000, "lmi_pct": "81%", "households": 404, "tier": "Tier2"}}, {"type": "Feature", "geometry": {"type": "Point", "coordinates": [-77.1007, 38.7339]}, "properties": {"rank": 48, "zone_id": "17", "location": "Alexandria", "score": 62.6, "daily_kwh": 48000, "lmi_pct": "73%", "households": 3652, "tier": "Tier2"}}, {"type": "Feature", "geometry": {"type": "Point", "coordinates": [-77.4619, 38.7501]}, "properties": {"rank": 49, "zone_id": "109", "location": "Manassas", "score": 62.1, "daily_kwh": 48000, "lmi_pct": "72%", "households": 718, "tier": "Tier2"}}, {"type": "Feature", "geometry": {"type": "Point", "coordinates": [-78.4893, 38.0804]}, "properties": {"rank": 50, "zone_id": "279", "location": "Charlottesville", "score": 62.1, "daily_kwh": 48000, "lmi_pct": "73%", "households": 366, "tier": "Tier2"}}, {"type": "Feature", "geometry": {"type": "Point", "coordinates": [-77.2051, 38.8325]}, "properties": {"rank": 51, "zone_id": "34", "location": "Fairfax", "score": 61.7, "daily_kwh": 48000, "lmi_pct": "66%", "households": 1648, "tier": "Tier2"}}, {"type": "Feature", "geometry": {"type": "Point", "coordinates": [-76.1836, 36.8662]}, "properties": {"rank": 52, "zone_id": "54", "location": "Norfolk", "score": 61.4, "daily_kwh": 48000, "lmi_pct": "65%", "households": 973, "tier": "Tier2"}}, {"type": "Feature", "geometry": {"type": "Point", "coordinates": [-76.0084, 36.848]}, "properties": {"rank": 53, "zone_id": "40", "location": "Virginia Beach", "score": 61.3, "daily_kwh": 48000, "lmi_pct": "65%", "households": 1300, "tier": "Tier2"}}, {"type": "Feature", "geometry": {"type": "Point", "coordinates": [-77.2037, 38.8679]}, "properties": {"rank": 54, "zone_id": "44", "location": "Fairfax", "score": 60.9, "daily_kwh": 48000, "lmi_pct": "61%", "households": 1214, "tier": "Tier2"}}, {"type": "Feature", "geometry": {"type": "Point", "coordinates": [-76.4459, 37.0887]}, "properties": {"rank": 55, "zone_id": "106", "location": "Newport News", "score": 60.8, "daily_kwh": 48000, "lmi_pct": "68%", "households": 682, "tier": "Tier2"}}, {"type": "Feature", "geometry": {"type": "Point", "coordinates": [-77.1924, 38.7989]}, "properties": {"rank": 56, "zone_id": "99", "location": "Fairfax", "score": 60.6, "daily_kwh": 48000, "lmi_pct": "67%", "households": 673, "tier": "Tier2"}}, {"type": "Feature", "geometry": {"type": "Point", "coordinates": [-76.1018, 36.7986]}, "properties": {"rank": 57, "zone_id": "89", "location": "Virginia Beach", "score": 60.6, "daily_kwh": 48000, "lmi_pct": "62%", "households": 618, "tier": "Tier2"}}, {"type": "Feature", "geometry": {"type": "Point", "coordinates": [-77.4419, 37.3453]}, "properties": {"rank": 58, "zone_id": "184", "location": "Colonial Heights", "score": 60.6, "daily_kwh": 48000, "lmi_pct": "79%", "households": 395, "tier": "Tier2"}}, {"type": "Feature", "geometry": {"type": "Point", "coordinates": [-77.3629, 38.9435]}, "properties": {"rank": 59, "zone_id": "42", "location": "Herndon", "score": 60.5, "daily_kwh": 48000, "lmi_pct": "67%", "households": 1331, "tier": "Tier2"}}, {"type": "Feature", "geometry": {"type": "Point", "coordinates": [-77.5641, 37.6312]}, "properties": {"rank": 60, "zone_id": "270", "location": "Ashland", "score": 60.2, "daily_kwh": 48000, "lmi_pct": "70%", "households": 350, "tier": "Tier2"}}, {"type": "Feature", "geometry": {"type": "Point", "coordinates": [-77.3403, 38.6456]}, "properties": {"rank": 61, "zone_id": "32", "location": "Manassas", "score": 60.0, "daily_kwh": 48000, "lmi_pct": "66%", "households": 1647, "tier": "Tier2"}}, {"type": "Feature", "geometry": {"type": "Point", "coordinates": [-77.1315, 38.7276]}, "properties": {"rank": 62, "zone_id": "69", "location": "Alexandria", "score": 60.0, "daily_kwh": 48000, "lmi_pct": "70%", "households": 1051, "tier": "Tier2"}}, {"type": "Feature", "geometry": {"type": "Point", "coordinates": [-77.5814, 37.6038]}, "properties": {"rank": 63, "zone_id": "19", "location": "Richmond", "score": 59.9, "daily_kwh": 48000, "lmi_pct": "74%", "households": 3313, "tier": "Tier2"}}, {"type": "Feature", "geometry": {"type": "Point", "coordinates": [-77.2079, 38.7075]}, "properties": {"rank": 64, "zone_id": "246", "location": "Fairfax", "score": 59.6, "daily_kwh": 48000, "lmi_pct": "74%", "households": 372, "tier": "Tier2"}}, {"type": "Feature", "geometry": {"type": "Point", "coordinates": [-76.5688, 37.1637]}, "properties": {"rank": 65, "zone_id": "88", "location": "Newport News", "score": 59.5, "daily_kwh": 48000, "lmi_pct": "61%", "households": 612, "tier": "Tier2"}}, {"type": "Feature", "geometry": {"type": "Point", "coordinates": [-76.2843, 36.7507]}, "properties": {"rank": 66, "zone_id": "124", "location": "Chesapeake", "score": 59.4, "daily_kwh": 48000, "lmi_pct": "75%", "households": 749, "tier": "Tier2"}}, {"type": "Feature", "geometry": {"type": "Point", "coordinates": [-76.6839, 37.2836]}, "properties": {"rank": 67, "zone_id": "75", "location": "Rural (37.28\u00b0N)", "score": 59.3, "daily_kwh": 48000, "lmi_pct": "59%", "households": 587, "tier": "Tier2"}}, {"type": "Feature", "geometry": {"type": "Point", "coordinates": [-77.4939, 38.3676]}, "properties": {"rank": 68, "zone_id": "141", "location": "Fredericksburg", "score": 58.9, "daily_kwh": 48000, "lmi_pct": "78%", "households": 388, "tier": "Tier2"}}, {"type": "Feature", "geometry": {"type": "Point", "coordinates": [-77.6339, 37.6169]}, "properties": {"rank": 69, "zone_id": "27", "location": "Richmond", "score": 58.9, "daily_kwh": 48000, "lmi_pct": "63%", "households": 1903, "tier": "Tier2"}}, {"type": "Feature", "geometry": {"type": "Point", "coordinates": [-77.3145, 38.6429]}, "properties": {"rank": 70, "zone_id": "64", "location": "Manassas", "score": 58.7, "daily_kwh": 48000, "lmi_pct": "60%", "households": 898, "tier": "Tier2"}}, {"type": "Feature", "geometry": {"type": "Point", "coordinates": [-76.2237, 36.8786]}, "properties": {"rank": 71, "zone_id": "56", "location": "Norfolk", "score": 58.7, "daily_kwh": 48000, "lmi_pct": "60%", "households": 895, "tier": "Tier2"}}, {"type": "Feature", "geometry": {"type": "Point", "coordinates": [-77.2805, 38.8595]}, "properties": {"rank": 72, "zone_id": "57", "location": "Fairfax", "score": 58.6, "daily_kwh": 48000, "lmi_pct": "59%", "households": 883, "tier": "Tier2"}}, {"type": "Feature", "geometry": {"type": "Point", "coordinates": [-77.1898, 38.782]}, "properties": {"rank": 73, "zone_id": "144", "location": "Fairfax", "score": 58.6, "daily_kwh": 48000, "lmi_pct": "77%", "households": 386, "tier": "Tier2"}}, {"type": "Feature", "geometry": {"type": "Point", "coordinates": [-77.4535, 37.3598]}, "properties": {"rank": 74, "zone_id": "72", "location": "Colonial Heights", "score": 58.5, "daily_kwh": 48000, "lmi_pct": "64%", "households": 640, "tier": "Tier2"}}, {"type": "Feature", "geometry": {"type": "Point", "coordinates": [-76.6706, 37.26]}, "properties": {"rank": 75, "zone_id": "286", "location": "Newport News", "score": 58.2, "daily_kwh": 48000, "lmi_pct": "80%", "households": 401, "tier": "Tier2"}}, {"type": "Feature", "geometry": {"type": "Point", "coordinates": [-77.2066, 38.9181]}, "properties": {"rank": 76, "zone_id": "112", "location": "Arlington", "score": 57.9, "daily_kwh": 48000, "lmi_pct": "55%", "households": 551, "tier": "Tier2"}}, {"type": "Feature", "geometry": {"type": "Point", "coordinates": [-77.469, 37.6432]}, "properties": {"rank": 77, "zone_id": "91", "location": "Richmond", "score": 57.6, "daily_kwh": 48000, "lmi_pct": "61%", "households": 612, "tier": "Tier2"}}, {"type": "Feature", "geometry": {"type": "Point", "coordinates": [-79.3462, 37.7501]}, "properties": {"rank": 78, "zone_id": "178", "location": "Rural (37.75\u00b0N)", "score": 57.5, "daily_kwh": 48000, "lmi_pct": "85%", "households": 424, "tier": "Tier2"}}, {"type": "Feature", "geometry": {"type": "Point", "coordinates": [-79.4409, 37.78]}, "properties": {"rank": 79, "zone_id": "156", "location": "Rural (37.78\u00b0N)", "score": 57.4, "daily_kwh": 48000, "lmi_pct": "76%", "households": 381, "tier": "Tier2"}}, {"type": "Feature", "geometry": {"type": "Point", "coordinates": [-77.0702, 38.769]}, "properties": {"rank": 80, "zone_id": "100", "location": "Alexandria", "score": 57.3, "daily_kwh": 48000, "lmi_pct": "58%", "households": 576, "tier": "Tier2"}}, {"type": "Feature", "geometry": {"type": "Point", "coordinates": [-77.4531, 38.895]}, "properties": {"rank": 81, "zone_id": "47", "location": "Herndon", "score": 57.2, "daily_kwh": 48000, "lmi_pct": "88%", "households": 1321, "tier": "Tier2"}}, {"type": "Feature", "geometry": {"type": "Point", "coordinates": [-76.3978, 36.8707]}, "properties": {"rank": 82, "zone_id": "26", "location": "Portsmouth", "score": 57.1, "daily_kwh": 48000, "lmi_pct": "64%", "households": 1927, "tier": "Tier2"}}, {"type": "Feature", "geometry": {"type": "Point", "coordinates": [-79.8335, 37.8174]}, "properties": {"rank": 83, "zone_id": "87", "location": "Rural (37.82\u00b0N)", "score": 57.1, "daily_kwh": 48000, "lmi_pct": "61%", "households": 607, "tier": "Tier2"}}, {"type": "Feature", "geometry": {"type": "Point", "coordinates": [-77.4419, 39.0573]}, "properties": {"rank": 84, "zone_id": "95", "location": "Sterling", "score": 56.8, "daily_kwh": 48000, "lmi_pct": "58%", "households": 583, "tier": "Tier2"}}, {"type": "Feature", "geometry": {"type": "Point", "coordinates": [-77.497, 38.3195]}, "properties": {"rank": 85, "zone_id": "210", "location": "Fredericksburg", "score": 56.7, "daily_kwh": 48000, "lmi_pct": "78%", "households": 388, "tier": "Tier2"}}, {"type": "Feature", "geometry": {"type": "Point", "coordinates": [-77.5951, 37.4438]}, "properties": {"rank": 86, "zone_id": "105", "location": "Richmond", "score": 56.3, "daily_kwh": 48000, "lmi_pct": "69%", "households": 690, "tier": "Tier2"}}, {"type": "Feature", "geometry": {"type": "Point", "coordinates": [-76.4257, 36.8735]}, "properties": {"rank": 87, "zone_id": "107", "location": "Portsmouth", "score": 55.9, "daily_kwh": 48000, "lmi_pct": "59%", "households": 594, "tier": "Tier2"}}, {"type": "Feature", "geometry": {"type": "Point", "coordinates": [-77.3209, 38.5682]}, "properties": {"rank": 88, "zone_id": "28", "location": "Manassas", "score": 55.9, "daily_kwh": 48000, "lmi_pct": "66%", "households": 1981, "tier": "Tier2"}}, {"type": "Feature", "geometry": {"type": "Point", "coordinates": [-77.4156, 38.4642]}, "properties": {"rank": 89, "zone_id": "159", "location": "Fredericksburg", "score": 55.8, "daily_kwh": 48000, "lmi_pct": "73%", "households": 366, "tier": "Tier2"}}, {"type": "Feature", "geometry": {"type": "Point", "coordinates": [-77.4281, 38.4048]}, "properties": {"rank": 90, "zone_id": "117", "location": "Fredericksburg", "score": 55.7, "daily_kwh": 48000, "lmi_pct": "77%", "households": 766, "tier": "Tier2"}}, {"type": "Feature", "geometry": {"type": "Point", "coordinates": [-77.2827, 38.6649]}, "properties": {"rank": 91, "zone_id": "121", "location": "Fairfax", "score": 55.6, "daily_kwh": 48000, "lmi_pct": "61%", "households": 612, "tier": "Tier2"}}, {"type": "Feature", "geometry": {"type": "Point", "coordinates": [-77.1643, 38.7977]}, "properties": {"rank": 92, "zone_id": "169", "location": "Arlington", "score": 55.6, "daily_kwh": 48000, "lmi_pct": "74%", "households": 370, "tier": "Tier2"}}, {"type": "Feature", "geometry": {"type": "Point", "coordinates": [-76.2411, 36.8717]}, "properties": {"rank": 93, "zone_id": "257", "location": "Norfolk", "score": 54.7, "daily_kwh": 48000, "lmi_pct": "65%", "households": 324, "tier": "Tier2"}}, {"type": "Feature", "geometry": {"type": "Point", "coordinates": [-77.4209, 38.8373]}, "properties": {"rank": 94, "zone_id": "195", "location": "Manassas", "score": 54.7, "daily_kwh": 48000, "lmi_pct": "66%", "households": 328, "tier": "Tier2"}}, {"type": "Feature", "geometry": {"type": "Point", "coordinates": [-77.2036, 38.8997]}, "properties": {"rank": 95, "zone_id": "221", "location": "Arlington", "score": 54.6, "daily_kwh": 48000, "lmi_pct": "52%", "households": 260, "tier": "Tier2"}}, {"type": "Feature", "geometry": {"type": "Point", "coordinates": [-77.6168, 37.4212]}, "properties": {"rank": 96, "zone_id": "73", "location": "Richmond", "score": 54.5, "daily_kwh": 48000, "lmi_pct": "58%", "households": 582, "tier": "Tier2"}}, {"type": "Feature", "geometry": {"type": "Point", "coordinates": [-77.5293, 38.2776]}, "properties": {"rank": 97, "zone_id": "215", "location": "Fredericksburg", "score": 54.0, "daily_kwh": 48000, "lmi_pct": "74%", "households": 372, "tier": "Tier2"}}, {"type": "Feature", "geometry": {"type": "Point", "coordinates": [-76.2071, 36.8544]}, "properties": {"rank": 98, "zone_id": "49", "location": "Norfolk", "score": 54.0, "daily_kwh": 48000, "lmi_pct": "61%", "households": 912, "tier": "Tier2"}}, {"type": "Feature", "geometry": {"type": "Point", "coordinates": [-77.5022, 37.5955]}, "properties": {"rank": 99, "zone_id": "111", "location": "Richmond", "score": 53.7, "daily_kwh": 48000, "lmi_pct": "56%", "households": 564, "tier": "Tier2"}}, {"type": "Feature", "geometry": {"type": "Point", "coordinates": [-77.2241, 38.8773]}, "properties": {"rank": 100, "zone_id": "168", "location": "Fairfax", "score": 53.6, "daily_kwh": 48000, "lmi_pct": "62%", "households": 308, "tier": "Tier2"}}, {"type": "Feature", "geometry": {"type": "Point", "coordinates": [-77.3804, 38.8679]}, "properties": {"rank": 101, "zone_id": "165", "location": "Fairfax", "score": 53.5, "daily_kwh": 48000, "lmi_pct": "55%", "households": 275, "tier": "Tier2"}}, {"type": "Feature", "geometry": {"type": "Point", "coordinates": [-76.0573, 36.8513]}, "properties": {"rank": 102, "zone_id": "251", "location": "Virginia Beach", "score": 53.2, "daily_kwh": 48000, "lmi_pct": "71%", "households": 353, "tier": "Tier2"}}, {"type": "Feature", "geometry": {"type": "Point", "coordinates": [-76.4883, 37.0875]}, "properties": {"rank": 103, "zone_id": "11", "location": "Newport News", "score": 53.1, "daily_kwh": 48000, "lmi_pct": "70%", "households": 5968, "tier": "Tier2"}}, {"type": "Feature", "geometry": {"type": "Point", "coordinates": [-79.0713, 38.1659]}, "properties": {"rank": 104, "zone_id": "179", "location": "Rural (38.17\u00b0N)", "score": 52.9, "daily_kwh": 48000, "lmi_pct": "72%", "households": 362, "tier": "Tier2"}}, {"type": "Feature", "geometry": {"type": "Point", "coordinates": [-76.3798, 37.0654]}, "properties": {"rank": 105, "zone_id": "173", "location": "Hampton", "score": 52.6, "daily_kwh": 48000, "lmi_pct": "69%", "households": 343, "tier": "Tier2"}}, {"type": "Feature", "geometry": {"type": "Point", "coordinates": [-77.5657, 38.2673]}, "properties": {"rank": 106, "zone_id": "59", "location": "Fredericksburg", "score": 52.5, "daily_kwh": 48000, "lmi_pct": "59%", "households": 887, "tier": "Tier2"}}, {"type": "Feature", "geometry": {"type": "Point", "coordinates": [-77.5476, 38.7391]}, "properties": {"rank": 107, "zone_id": "120", "location": "Manassas", "score": 52.3, "daily_kwh": 48000, "lmi_pct": "55%", "households": 546, "tier": "Tier2"}}, {"type": "Feature", "geometry": {"type": "Point", "coordinates": [-76.2135, 36.7914]}, "properties": {"rank": 108, "zone_id": "30", "location": "Chesapeake", "score": 52.1, "daily_kwh": 48000, "lmi_pct": "67%", "households": 1680, "tier": "Tier2"}}, {"type": "Feature", "geometry": {"type": "Point", "coordinates": [-76.0917, 36.828]}, "properties": {"rank": 109, "zone_id": "259", "location": "Virginia Beach", "score": 52.0, "daily_kwh": 48000, "lmi_pct": "65%", "households": 324, "tier": "Tier2"}}, {"type": "Feature", "geometry": {"type": "Point", "coordinates": [-79.0791, 38.1709]}, "properties": {"rank": 110, "zone_id": "180", "location": "Rural (38.17\u00b0N)", "score": 51.9, "daily_kwh": 48000, "lmi_pct": "67%", "households": 336, "tier": "Tier2"}}, {"type": "Feature", "geometry": {"type": "Point", "coordinates": [-77.1799, 38.758]}, "properties": {"rank": 111, "zone_id": "250", "location": "Alexandria", "score": 51.7, "daily_kwh": 48000, "lmi_pct": "73%", "households": 364, "tier": "Tier2"}}, {"type": "Feature", "geometry": {"type": "Point", "coordinates": [-77.0401, 38.8116]}, "properties": {"rank": 112, "zone_id": "226", "location": "Alexandria", "score": 51.6, "daily_kwh": 48000, "lmi_pct": "55%", "households": 274, "tier": "Tier2"}}, {"type": "Feature", "geometry": {"type": "Point", "coordinates": [-77.22, 38.9296]}, "properties": {"rank": 113, "zone_id": "170", "location": "Fairfax", "score": 51.5, "daily_kwh": 48000, "lmi_pct": "71%", "households": 353, "tier": "Tier2"}}, {"type": "Feature", "geometry": {"type": "Point", "coordinates": [-76.5275, 37.2335]}, "properties": {"rank": 114, "zone_id": "209", "location": "Newport News", "score": 51.4, "daily_kwh": 48000, "lmi_pct": "72%", "households": 358, "tier": "Tier2"}}, {"type": "Feature", "geometry": {"type": "Point", "coordinates": [-77.3509, 38.8508]}, "properties": {"rank": 115, "zone_id": "197", "location": "Fairfax", "score": 51.4, "daily_kwh": 48000, "lmi_pct": "56%", "households": 282, "tier": "Tier2"}}, {"type": "Feature", "geometry": {"type": "Point", "coordinates": [-77.4985, 37.3913]}, "properties": {"rank": 116, "zone_id": "45", "location": "Richmond", "score": 51.1, "daily_kwh": 48000, "lmi_pct": "67%", "households": 1011, "tier": "Tier2"}}, {"type": "Feature", "geometry": {"type": "Point", "coordinates": [-76.0166, 36.791]}, "properties": {"rank": 117, "zone_id": "77", "location": "Virginia Beach", "score": 51.0, "daily_kwh": 48000, "lmi_pct": "56%", "households": 556, "tier": "Tier2"}}, {"type": "Feature", "geometry": {"type": "Point", "coordinates": [-78.502, 38.0381]}, "properties": {"rank": 118, "zone_id": "8", "location": "Charlottesville", "score": 50.2, "daily_kwh": 48000, "lmi_pct": "75%", "households": 10059, "tier": "Tier2"}}, {"type": "Feature", "geometry": {"type": "Point", "coordinates": [-77.275, 38.6353]}, "properties": {"rank": 119, "zone_id": "9", "location": "Fairfax", "score": 49.5, "daily_kwh": 48000, "lmi_pct": "67%", "households": 7389, "tier": "Tier3"}}, {"type": "Feature", "geometry": {"type": "Point", "coordinates": [-77.2803, 37.3107]}, "properties": {"rank": 120, "zone_id": "164", "location": "Hopewell", "score": 49.3, "daily_kwh": 48000, "lmi_pct": "68%", "households": 340, "tier": "Tier3"}}, {"type": "Feature", "geometry": {"type": "Point", "coordinates": [-76.6477, 36.9794]}, "properties": {"rank": 121, "zone_id": "231", "location": "Newport News", "score": 49.1, "daily_kwh": 48000, "lmi_pct": "74%", "households": 370, "tier": "Tier3"}}, {"type": "Feature", "geometry": {"type": "Point", "coordinates": [-76.5243, 37.1102]}, "properties": {"rank": 122, "zone_id": "176", "location": "Newport News", "score": 48.7, "daily_kwh": 48000, "lmi_pct": "63%", "households": 316, "tier": "Tier3"}}, {"type": "Feature", "geometry": {"type": "Point", "coordinates": [-79.3471, 37.7281]}, "properties": {"rank": 123, "zone_id": "177", "location": "Rural (37.73\u00b0N)", "score": 48.4, "daily_kwh": 48000, "lmi_pct": "65%", "households": 324, "tier": "Tier3"}}, {"type": "Feature", "geometry": {"type": "Point", "coordinates": [-76.6094, 37.2231]}, "properties": {"rank": 124, "zone_id": "118", "location": "Newport News", "score": 48.3, "daily_kwh": 48000, "lmi_pct": "57%", "households": 574, "tier": "Tier3"}}, {"type": "Feature", "geometry": {"type": "Point", "coordinates": [-76.2048, 36.8062]}, "properties": {"rank": 125, "zone_id": "137", "location": "Chesapeake", "score": 48.3, "daily_kwh": 48000, "lmi_pct": "57%", "households": 285, "tier": "Tier3"}}, {"type": "Feature", "geometry": {"type": "Point", "coordinates": [-77.6047, 37.595]}, "properties": {"rank": 126, "zone_id": "271", "location": "Richmond", "score": 48.2, "daily_kwh": 48000, "lmi_pct": "52%", "households": 260, "tier": "Tier3"}}, {"type": "Feature", "geometry": {"type": "Point", "coordinates": [-78.5104, 38.0652]}, "properties": {"rank": 127, "zone_id": "281", "location": "Charlottesville", "score": 48.1, "daily_kwh": 48000, "lmi_pct": "60%", "households": 301, "tier": "Tier3"}}, {"type": "Feature", "geometry": {"type": "Point", "coordinates": [-78.8844, 38.4591]}, "properties": {"rank": 128, "zone_id": "163", "location": "Rural (38.46\u00b0N)", "score": 48.0, "daily_kwh": 48000, "lmi_pct": "67%", "households": 334, "tier": "Tier3"}}, {"type": "Feature", "geometry": {"type": "Point", "coordinates": [-77.4862, 39.0758]}, "properties": {"rank": 129, "zone_id": "158", "location": "Sterling", "score": 47.7, "daily_kwh": 48000, "lmi_pct": "60%", "households": 300, "tier": "Tier3"}}, {"type": "Feature", "geometry": {"type": "Point", "coordinates": [-77.4106, 39.0292]}, "properties": {"rank": 130, "zone_id": "283", "location": "Sterling", "score": 47.6, "daily_kwh": 48000, "lmi_pct": "66%", "households": 328, "tier": "Tier3"}}, {"type": "Feature", "geometry": {"type": "Point", "coordinates": [-76.1745, 36.9155]}, "properties": {"rank": 131, "zone_id": "15", "location": "Norfolk", "score": 47.5, "daily_kwh": 48000, "lmi_pct": "62%", "households": 3696, "tier": "Tier3"}}, {"type": "Feature", "geometry": {"type": "Point", "coordinates": [-76.078, 36.8159]}, "properties": {"rank": 132, "zone_id": "253", "location": "Virginia Beach", "score": 47.5, "daily_kwh": 48000, "lmi_pct": "60%", "households": 298, "tier": "Tier3"}}, {"type": "Feature", "geometry": {"type": "Point", "coordinates": [-77.0879, 38.8591]}, "properties": {"rank": 133, "zone_id": "237", "location": "Arlington", "score": 47.5, "daily_kwh": 48000, "lmi_pct": "55%", "households": 274, "tier": "Tier3"}}, {"type": "Feature", "geometry": {"type": "Point", "coordinates": [-76.1547, 36.8268]}, "properties": {"rank": 134, "zone_id": "287", "location": "Norfolk", "score": 47.4, "daily_kwh": 48000, "lmi_pct": "60%", "households": 300, "tier": "Tier3"}}, {"type": "Feature", "geometry": {"type": "Point", "coordinates": [-77.3228, 37.2778]}, "properties": {"rank": 135, "zone_id": "235", "location": "Hopewell", "score": 47.4, "daily_kwh": 48000, "lmi_pct": "65%", "households": 324, "tier": "Tier3"}}, {"type": "Feature", "geometry": {"type": "Point", "coordinates": [-76.7262, 37.2721]}, "properties": {"rank": 136, "zone_id": "198", "location": "Rural (37.27\u00b0N)", "score": 47.4, "daily_kwh": 48000, "lmi_pct": "71%", "households": 356, "tier": "Tier3"}}, {"type": "Feature", "geometry": {"type": "Point", "coordinates": [-75.9697, 36.7885]}, "properties": {"rank": 137, "zone_id": "67", "location": "Virginia Beach", "score": 47.2, "daily_kwh": 48000, "lmi_pct": "64%", "households": 961, "tier": "Tier3"}}, {"type": "Feature", "geometry": {"type": "Point", "coordinates": [-76.6004, 37.1334]}, "properties": {"rank": 138, "zone_id": "249", "location": "Newport News", "score": 47.1, "daily_kwh": 48000, "lmi_pct": "83%", "households": 414, "tier": "Tier3"}}, {"type": "Feature", "geometry": {"type": "Point", "coordinates": [-76.1649, 36.7933]}, "properties": {"rank": 139, "zone_id": "183", "location": "Chesapeake", "score": 47.1, "daily_kwh": 48000, "lmi_pct": "58%", "households": 290, "tier": "Tier3"}}, {"type": "Feature", "geometry": {"type": "Point", "coordinates": [-79.98, 37.7916]}, "properties": {"rank": 140, "zone_id": "254", "location": "Rural (37.79\u00b0N)", "score": 47.0, "daily_kwh": 48000, "lmi_pct": "68%", "households": 340, "tier": "Tier3"}}, {"type": "Feature", "geometry": {"type": "Point", "coordinates": [-77.4183, 38.9973]}, "properties": {"rank": 141, "zone_id": "212", "location": "Sterling", "score": 46.8, "daily_kwh": 48000, "lmi_pct": "54%", "households": 268, "tier": "Tier3"}}, {"type": "Feature", "geometry": {"type": "Point", "coordinates": [-76.5013, 37.0718]}, "properties": {"rank": 142, "zone_id": "149", "location": "Newport News", "score": 46.8, "daily_kwh": 48000, "lmi_pct": "64%", "households": 322, "tier": "Tier3"}}, {"type": "Feature", "geometry": {"type": "Point", "coordinates": [-76.2215, 36.7665]}, "properties": {"rank": 143, "zone_id": "128", "location": "Chesapeake", "score": 46.8, "daily_kwh": 48000, "lmi_pct": "59%", "households": 294, "tier": "Tier3"}}, {"type": "Feature", "geometry": {"type": "Point", "coordinates": [-76.8691, 37.9222]}, "properties": {"rank": 144, "zone_id": "234", "location": "Rural (37.92\u00b0N)", "score": 46.2, "daily_kwh": 48000, "lmi_pct": "66%", "households": 329, "tier": "Tier3"}}, {"type": "Feature", "geometry": {"type": "Point", "coordinates": [-76.1276, 36.8432]}, "properties": {"rank": 145, "zone_id": "7", "location": "Virginia Beach", "score": 46.1, "daily_kwh": 48000, "lmi_pct": "64%", "households": 8650, "tier": "Tier3"}}, {"type": "Feature", "geometry": {"type": "Point", "coordinates": [-77.4373, 38.293]}, "properties": {"rank": 146, "zone_id": "185", "location": "Fredericksburg", "score": 45.9, "daily_kwh": 48000, "lmi_pct": "59%", "households": 296, "tier": "Tier3"}}, {"type": "Feature", "geometry": {"type": "Point", "coordinates": [-78.9129, 38.4202]}, "properties": {"rank": 147, "zone_id": "97", "location": "Rural (38.42\u00b0N)", "score": 45.9, "daily_kwh": 48000, "lmi_pct": "58%", "households": 582, "tier": "Tier3"}}, {"type": "Feature", "geometry": {"type": "Point", "coordinates": [-77.5162, 38.2295]}, "properties": {"rank": 148, "zone_id": "24", "location": "Fredericksburg", "score": 45.9, "daily_kwh": 48000, "lmi_pct": "62%", "households": 1854, "tier": "Tier3"}}, {"type": "Feature", "geometry": {"type": "Point", "coordinates": [-76.5117, 37.2672]}, "properties": {"rank": 149, "zone_id": "98", "location": "Newport News", "score": 45.7, "daily_kwh": 48000, "lmi_pct": "60%", "households": 600, "tier": "Tier3"}}, {"type": "Feature", "geometry": {"type": "Point", "coordinates": [-76.1888, 36.8342]}, "properties": {"rank": 150, "zone_id": "248", "location": "Norfolk", "score": 45.6, "daily_kwh": 48000, "lmi_pct": "61%", "households": 307, "tier": "Tier3"}}, {"type": "Feature", "geometry": {"type": "Point", "coordinates": [-77.4315, 37.3535]}, "properties": {"rank": 151, "zone_id": "162", "location": "Colonial Heights", "score": 45.5, "daily_kwh": 48000, "lmi_pct": "62%", "households": 312, "tier": "Tier3"}}, {"type": "Feature", "geometry": {"type": "Point", "coordinates": [-77.0793, 38.7917]}, "properties": {"rank": 152, "zone_id": "217", "location": "Alexandria", "score": 45.3, "daily_kwh": 48000, "lmi_pct": "52%", "households": 262, "tier": "Tier3"}}, {"type": "Feature", "geometry": {"type": "Point", "coordinates": [-76.4624, 37.0978]}, "properties": {"rank": 153, "zone_id": "192", "location": "Newport News", "score": 45.1, "daily_kwh": 48000, "lmi_pct": "59%", "households": 294, "tier": "Tier3"}}, {"type": "Feature", "geometry": {"type": "Point", "coordinates": [-78.9367, 37.0443]}, "properties": {"rank": 154, "zone_id": "228", "location": "Rural (37.04\u00b0N)", "score": 45.0, "daily_kwh": 48000, "lmi_pct": "74%", "households": 370, "tier": "Tier3"}}, {"type": "Feature", "geometry": {"type": "Point", "coordinates": [-79.1129, 38.1504]}, "properties": {"rank": 155, "zone_id": "23", "location": "Rural (38.15\u00b0N)", "score": 44.9, "daily_kwh": 48000, "lmi_pct": "61%", "households": 1822, "tier": "Tier3"}}, {"type": "Feature", "geometry": {"type": "Point", "coordinates": [-76.3369, 36.8557]}, "properties": {"rank": 156, "zone_id": "153", "location": "Portsmouth", "score": 44.8, "daily_kwh": 48000, "lmi_pct": "61%", "households": 304, "tier": "Tier3"}}, {"type": "Feature", "geometry": {"type": "Point", "coordinates": [-77.4635, 37.7711]}, "properties": {"rank": 157, "zone_id": "51", "location": "Ashland", "score": 44.6, "daily_kwh": 48000, "lmi_pct": "62%", "households": 930, "tier": "Tier3"}}, {"type": "Feature", "geometry": {"type": "Point", "coordinates": [-76.2205, 36.8692]}, "properties": {"rank": 158, "zone_id": "258", "location": "Norfolk", "score": 44.2, "daily_kwh": 48000, "lmi_pct": "60%", "households": 298, "tier": "Tier3"}}, {"type": "Feature", "geometry": {"type": "Point", "coordinates": [-78.0143, 38.4518]}, "properties": {"rank": 159, "zone_id": "243", "location": "Rural (38.45\u00b0N)", "score": 44.2, "daily_kwh": 48000, "lmi_pct": "57%", "households": 287, "tier": "Tier3"}}, {"type": "Feature", "geometry": {"type": "Point", "coordinates": [-77.5886, 37.4718]}, "properties": {"rank": 160, "zone_id": "145", "location": "Richmond", "score": 44.2, "daily_kwh": 48000, "lmi_pct": "60%", "households": 300, "tier": "Tier3"}}, {"type": "Feature", "geometry": {"type": "Point", "coordinates": [-76.311, 36.8205]}, "properties": {"rank": 161, "zone_id": "2", "location": "Norfolk", "score": 43.9, "daily_kwh": 48000, "lmi_pct": "74%", "households": 42628, "tier": "Tier3"}}, {"type": "Feature", "geometry": {"type": "Point", "coordinates": [-76.9706, 38.2591]}, "properties": {"rank": 162, "zone_id": "134", "location": "Rural (38.26\u00b0N)", "score": 43.4, "daily_kwh": 48000, "lmi_pct": "59%", "households": 294, "tier": "Tier3"}}, {"type": "Feature", "geometry": {"type": "Point", "coordinates": [-77.5766, 39.1084]}, "properties": {"rank": 163, "zone_id": "211", "location": "Sterling", "score": 43.3, "daily_kwh": 48000, "lmi_pct": "59%", "households": 297, "tier": "Tier3"}}, {"type": "Feature", "geometry": {"type": "Point", "coordinates": [-77.3269, 38.6756]}, "properties": {"rank": 164, "zone_id": "152", "location": "Manassas", "score": 43.1, "daily_kwh": 48000, "lmi_pct": "55%", "households": 274, "tier": "Tier3"}}, {"type": "Feature", "geometry": {"type": "Point", "coordinates": [-77.3845, 39.0323]}, "properties": {"rank": 165, "zone_id": "160", "location": "Sterling", "score": 43.0, "daily_kwh": 48000, "lmi_pct": "52%", "households": 260, "tier": "Tier3"}}, {"type": "Feature", "geometry": {"type": "Point", "coordinates": [-76.171, 36.8336]}, "properties": {"rank": 166, "zone_id": "225", "location": "Norfolk", "score": 43.0, "daily_kwh": 48000, "lmi_pct": "52%", "households": 261, "tier": "Tier3"}}, {"type": "Feature", "geometry": {"type": "Point", "coordinates": [-77.3588, 37.5524]}, "properties": {"rank": 167, "zone_id": "276", "location": "Henrico", "score": 43.0, "daily_kwh": 48000, "lmi_pct": "56%", "households": 282, "tier": "Tier3"}}, {"type": "Feature", "geometry": {"type": "Point", "coordinates": [-76.5294, 37.1432]}, "properties": {"rank": 168, "zone_id": "10", "location": "Newport News", "score": 42.8, "daily_kwh": 48000, "lmi_pct": "67%", "households": 5995, "tier": "Tier3"}}, {"type": "Feature", "geometry": {"type": "Point", "coordinates": [-78.0088, 38.4989]}, "properties": {"rank": 169, "zone_id": "93", "location": "Rural (38.50\u00b0N)", "score": 42.7, "daily_kwh": 48000, "lmi_pct": "62%", "households": 618, "tier": "Tier3"}}, {"type": "Feature", "geometry": {"type": "Point", "coordinates": [-77.1693, 38.2539]}, "properties": {"rank": 170, "zone_id": "223", "location": "Fredericksburg", "score": 42.5, "daily_kwh": 48000, "lmi_pct": "74%", "households": 371, "tier": "Tier3"}}, {"type": "Feature", "geometry": {"type": "Point", "coordinates": [-77.4391, 37.5028]}, "properties": {"rank": 171, "zone_id": "1", "location": "Richmond", "score": 42.3, "daily_kwh": 48000, "lmi_pct": "74%", "households": 79995, "tier": "Tier3"}}, {"type": "Feature", "geometry": {"type": "Point", "coordinates": [-78.8521, 38.4081]}, "properties": {"rank": 172, "zone_id": "263", "location": "Rural (38.41\u00b0N)", "score": 42.2, "daily_kwh": 48000, "lmi_pct": "61%", "households": 306, "tier": "Tier3"}}, {"type": "Feature", "geometry": {"type": "Point", "coordinates": [-77.18, 38.8216]}, "properties": {"rank": 173, "zone_id": "219", "location": "Arlington", "score": 42.1, "daily_kwh": 48000, "lmi_pct": "56%", "households": 278, "tier": "Tier3"}}, {"type": "Feature", "geometry": {"type": "Point", "coordinates": [-77.3271, 37.5813]}, "properties": {"rank": 174, "zone_id": "52", "location": "Henrico", "score": 42.0, "daily_kwh": 48000, "lmi_pct": "58%", "households": 866, "tier": "Tier3"}}, {"type": "Feature", "geometry": {"type": "Point", "coordinates": [-79.08, 38.1537]}, "properties": {"rank": 175, "zone_id": "167", "location": "Rural (38.15\u00b0N)", "score": 41.8, "daily_kwh": 48000, "lmi_pct": "54%", "households": 270, "tier": "Tier3"}}, {"type": "Feature", "geometry": {"type": "Point", "coordinates": [-77.0324, 38.3397]}, "properties": {"rank": 176, "zone_id": "196", "location": "Rural (38.34\u00b0N)", "score": 41.6, "daily_kwh": 48000, "lmi_pct": "72%", "households": 359, "tier": "Tier3"}}, {"type": "Feature", "geometry": {"type": "Point", "coordinates": [-77.3963, 38.9582]}, "properties": {"rank": 177, "zone_id": "147", "location": "Herndon", "score": 41.5, "daily_kwh": 48000, "lmi_pct": "53%", "households": 266, "tier": "Tier3"}}, {"type": "Feature", "geometry": {"type": "Point", "coordinates": [-77.5032, 37.4252]}, "properties": {"rank": 178, "zone_id": "252", "location": "Richmond", "score": 41.3, "daily_kwh": 48000, "lmi_pct": "57%", "households": 286, "tier": "Tier3"}}, {"type": "Feature", "geometry": {"type": "Point", "coordinates": [-76.2761, 36.7891]}, "properties": {"rank": 179, "zone_id": "232", "location": "Chesapeake", "score": 41.2, "daily_kwh": 48000, "lmi_pct": "52%", "households": 262, "tier": "Tier3"}}, {"type": "Feature", "geometry": {"type": "Point", "coordinates": [-77.2963, 38.6873]}, "properties": {"rank": 180, "zone_id": "175", "location": "Fairfax", "score": 41.2, "daily_kwh": 48000, "lmi_pct": "51%", "households": 256, "tier": "Tier3"}}, {"type": "Feature", "geometry": {"type": "Point", "coordinates": [-78.8911, 38.0614]}, "properties": {"rank": 181, "zone_id": "20", "location": "Rural (38.06\u00b0N)", "score": 41.1, "daily_kwh": 48000, "lmi_pct": "71%", "households": 2832, "tier": "Tier3"}}, {"type": "Feature", "geometry": {"type": "Point", "coordinates": [-76.0249, 36.7697]}, "properties": {"rank": 182, "zone_id": "289", "location": "Virginia Beach", "score": 40.8, "daily_kwh": 48000, "lmi_pct": "52%", "households": 262, "tier": "Tier3"}}, {"type": "Feature", "geometry": {"type": "Point", "coordinates": [-77.4971, 38.3519]}, "properties": {"rank": 183, "zone_id": "140", "location": "Fredericksburg", "score": 40.7, "daily_kwh": 48000, "lmi_pct": "58%", "households": 290, "tier": "Tier3"}}, {"type": "Feature", "geometry": {"type": "Point", "coordinates": [-77.4419, 38.8438]}, "properties": {"rank": 184, "zone_id": "261", "location": "Manassas", "score": 40.6, "daily_kwh": 48000, "lmi_pct": "52%", "households": 260, "tier": "Tier3"}}, {"type": "Feature", "geometry": {"type": "Point", "coordinates": [-76.7842, 37.312]}, "properties": {"rank": 185, "zone_id": "285", "location": "Rural (37.31\u00b0N)", "score": 40.6, "daily_kwh": 48000, "lmi_pct": "55%", "households": 274, "tier": "Tier3"}}, {"type": "Feature", "geometry": {"type": "Point", "coordinates": [-77.6011, 37.5219]}, "properties": {"rank": 186, "zone_id": "224", "location": "Richmond", "score": 40.6, "daily_kwh": 48000, "lmi_pct": "52%", "households": 262, "tier": "Tier3"}}, {"type": "Feature", "geometry": {"type": "Point", "coordinates": [-77.2634, 38.6799]}, "properties": {"rank": 187, "zone_id": "155", "location": "Fairfax", "score": 40.4, "daily_kwh": 48000, "lmi_pct": "53%", "households": 266, "tier": "Tier3"}}, {"type": "Feature", "geometry": {"type": "Point", "coordinates": [-76.7247, 37.3241]}, "properties": {"rank": 188, "zone_id": "115", "location": "Rural (37.32\u00b0N)", "score": 40.4, "daily_kwh": 48000, "lmi_pct": "73%", "households": 732, "tier": "Tier3"}}, {"type": "Feature", "geometry": {"type": "Point", "coordinates": [-77.2052, 38.8807]}, "properties": {"rank": 189, "zone_id": "242", "location": "Fairfax", "score": 40.4, "daily_kwh": 48000, "lmi_pct": "54%", "households": 272, "tier": "Tier3"}}, {"type": "Feature", "geometry": {"type": "Point", "coordinates": [-78.4836, 38.8836]}, "properties": {"rank": 190, "zone_id": "267", "location": "Rural (38.88\u00b0N)", "score": 40.3, "daily_kwh": 48000, "lmi_pct": "70%", "households": 348, "tier": "Tier3"}}, {"type": "Feature", "geometry": {"type": "Point", "coordinates": [-76.3945, 37.0091]}, "properties": {"rank": 191, "zone_id": "3", "location": "Hampton", "score": 40.3, "daily_kwh": 48000, "lmi_pct": "70%", "households": 23648, "tier": "Tier3"}}, {"type": "Feature", "geometry": {"type": "Point", "coordinates": [-77.3604, 38.6748]}, "properties": {"rank": 192, "zone_id": "151", "location": "Manassas", "score": 40.2, "daily_kwh": 48000, "lmi_pct": "54%", "households": 268, "tier": "Tier3"}}, {"type": "Feature", "geometry": {"type": "Point", "coordinates": [-77.443, 38.5268]}, "properties": {"rank": 193, "zone_id": "18", "location": "Manassas", "score": 40.2, "daily_kwh": 48000, "lmi_pct": "75%", "households": 3394, "tier": "Tier3"}}, {"type": "Feature", "geometry": {"type": "Point", "coordinates": [-76.55, 36.7292]}, "properties": {"rank": 194, "zone_id": "12", "location": "Suffolk", "score": 40.0, "daily_kwh": 48000, "lmi_pct": "72%", "households": 5784, "tier": "Tier3"}}, {"type": "Feature", "geometry": {"type": "Point", "coordinates": [-77.0593, 36.9925]}, "properties": {"rank": 195, "zone_id": "68", "location": "Rural (36.99\u00b0N)", "score": 40.0, "daily_kwh": 48000, "lmi_pct": "75%", "households": 1128, "tier": "Tier3"}}, {"type": "Feature", "geometry": {"type": "Point", "coordinates": [-76.4304, 36.8475]}, "properties": {"rank": 196, "zone_id": "126", "location": "Portsmouth", "score": 39.7, "daily_kwh": 48000, "lmi_pct": "52%", "households": 262, "tier": "Tier3"}}, {"type": "Feature", "geometry": {"type": "Point", "coordinates": [-77.5916, 38.1601]}, "properties": {"rank": 197, "zone_id": "33", "location": "Fredericksburg", "score": 39.6, "daily_kwh": 48000, "lmi_pct": "74%", "households": 1848, "tier": "Tier3"}}, {"type": "Feature", "geometry": {"type": "Point", "coordinates": [-76.2911, 36.9299]}, "properties": {"rank": 198, "zone_id": "4", "location": "Norfolk", "score": 39.5, "daily_kwh": 48000, "lmi_pct": "68%", "households": 15215, "tier": "Tier3"}}, {"type": "Feature", "geometry": {"type": "Point", "coordinates": [-77.3492, 37.6142]}, "properties": {"rank": 199, "zone_id": "174", "location": "Henrico", "score": 39.5, "daily_kwh": 48000, "lmi_pct": "54%", "households": 268, "tier": "Tier3"}}, {"type": "Feature", "geometry": {"type": "Point", "coordinates": [-77.3012, 37.2637]}, "properties": {"rank": 200, "zone_id": "13", "location": "Hopewell", "score": 39.4, "daily_kwh": 48000, "lmi_pct": "71%", "households": 5310, "tier": "Tier3"}}, {"type": "Feature", "geometry": {"type": "Point", "coordinates": [-77.4413, 37.1999]}, "properties": {"rank": 201, "zone_id": "5", "location": "Colonial Heights", "score": 39.3, "daily_kwh": 48000, "lmi_pct": "72%", "households": 14735, "tier": "Tier3"}}, {"type": "Feature", "geometry": {"type": "Point", "coordinates": [-78.1393, 37.1726]}, "properties": {"rank": 202, "zone_id": "101", "location": "Rural (37.17\u00b0N)", "score": 39.3, "daily_kwh": 48000, "lmi_pct": "73%", "households": 731, "tier": "Tier3"}}, {"type": "Feature", "geometry": {"type": "Point", "coordinates": [-77.5658, 37.4803]}, "properties": {"rank": 203, "zone_id": "240", "location": "Richmond", "score": 39.0, "daily_kwh": 48000, "lmi_pct": "52%", "households": 258, "tier": "Tier3"}}, {"type": "Feature", "geometry": {"type": "Point", "coordinates": [-79.2918, 37.0925]}, "properties": {"rank": 204, "zone_id": "70", "location": "Rural (37.09\u00b0N)", "score": 38.7, "daily_kwh": 48000, "lmi_pct": "72%", "households": 1074, "tier": "Tier3"}}, {"type": "Feature", "geometry": {"type": "Point", "coordinates": [-78.4291, 37.4121]}, "properties": {"rank": 205, "zone_id": "25", "location": "Rural (37.41\u00b0N)", "score": 38.7, "daily_kwh": 48000, "lmi_pct": "72%", "households": 2157, "tier": "Tier3"}}, {"type": "Feature", "geometry": {"type": "Point", "coordinates": [-77.4568, 38.272]}, "properties": {"rank": 206, "zone_id": "14", "location": "Fredericksburg", "score": 38.5, "daily_kwh": 48000, "lmi_pct": "65%", "households": 3923, "tier": "Tier3"}}, {"type": "Feature", "geometry": {"type": "Point", "coordinates": [-77.3099, 38.8308]}, "properties": {"rank": 207, "zone_id": "166", "location": "Fairfax", "score": 38.1, "daily_kwh": 48000, "lmi_pct": "53%", "households": 264, "tier": "Tier3"}}, {"type": "Feature", "geometry": {"type": "Point", "coordinates": [-78.926, 38.0618]}, "properties": {"rank": 208, "zone_id": "244", "location": "Rural (38.06\u00b0N)", "score": 37.0, "daily_kwh": 48000, "lmi_pct": "51%", "households": 255, "tier": "Tier3"}}, {"type": "Feature", "geometry": {"type": "Point", "coordinates": [-77.6284, 37.6601]}, "properties": {"rank": 209, "zone_id": "275", "location": "Ashland", "score": 36.9, "daily_kwh": 48000, "lmi_pct": "52%", "households": 258, "tier": "Tier3"}}, {"type": "Feature", "geometry": {"type": "Point", "coordinates": [-77.8433, 38.4986]}, "properties": {"rank": 210, "zone_id": "36", "location": "Rural (38.50\u00b0N)", "score": 36.7, "daily_kwh": 48000, "lmi_pct": "67%", "households": 1344, "tier": "Tier3"}}, {"type": "Feature", "geometry": {"type": "Point", "coordinates": [-78.7087, 38.0857]}, "properties": {"rank": 211, "zone_id": "278", "location": "Charlottesville", "score": 36.4, "daily_kwh": 48000, "lmi_pct": "55%", "households": 277, "tier": "Tier3"}}, {"type": "Feature", "geometry": {"type": "Point", "coordinates": [-79.4506, 37.6373]}, "properties": {"rank": 212, "zone_id": "206", "location": "Rural (37.64\u00b0N)", "score": 36.4, "daily_kwh": 48000, "lmi_pct": "58%", "households": 292, "tier": "Tier3"}}, {"type": "Feature", "geometry": {"type": "Point", "coordinates": [-78.4973, 37.9211]}, "properties": {"rank": 213, "zone_id": "31", "location": "Charlottesville", "score": 36.1, "daily_kwh": 48000, "lmi_pct": "66%", "households": 1642, "tier": "Tier3"}}, {"type": "Feature", "geometry": {"type": "Point", "coordinates": [-78.5378, 38.2851]}, "properties": {"rank": 214, "zone_id": "71", "location": "Charlottesville", "score": 36.0, "daily_kwh": 48000, "lmi_pct": "66%", "households": 656, "tier": "Tier3"}}, {"type": "Feature", "geometry": {"type": "Point", "coordinates": [-78.5706, 37.2667]}, "properties": {"rank": 215, "zone_id": "157", "location": "Rural (37.27\u00b0N)", "score": 35.8, "daily_kwh": 48000, "lmi_pct": "80%", "households": 400, "tier": "Tier3"}}, {"type": "Feature", "geometry": {"type": "Point", "coordinates": [-76.6069, 38.0783]}, "properties": {"rank": 216, "zone_id": "63", "location": "Rural (38.08\u00b0N)", "score": 35.7, "daily_kwh": 48000, "lmi_pct": "65%", "households": 973, "tier": "Tier3"}}, {"type": "Feature", "geometry": {"type": "Point", "coordinates": [-77.4427, 37.6669]}, "properties": {"rank": 217, "zone_id": "274", "location": "Ashland", "score": 35.5, "daily_kwh": 48000, "lmi_pct": "52%", "households": 258, "tier": "Tier3"}}, {"type": "Feature", "geometry": {"type": "Point", "coordinates": [-78.8361, 38.1659]}, "properties": {"rank": 218, "zone_id": "200", "location": "Rural (38.17\u00b0N)", "score": 35.3, "daily_kwh": 48000, "lmi_pct": "64%", "households": 320, "tier": "Tier3"}}, {"type": "Feature", "geometry": {"type": "Point", "coordinates": [-78.5636, 38.8697]}, "properties": {"rank": 219, "zone_id": "84", "location": "Rural (38.87\u00b0N)", "score": 35.2, "daily_kwh": 48000, "lmi_pct": "63%", "households": 632, "tier": "Tier3"}}, {"type": "Feature", "geometry": {"type": "Point", "coordinates": [-79.0189, 36.7834]}, "properties": {"rank": 220, "zone_id": "60", "location": "Rural (36.78\u00b0N)", "score": 35.2, "daily_kwh": 48000, "lmi_pct": "63%", "households": 952, "tier": "Tier3"}}, {"type": "Feature", "geometry": {"type": "Point", "coordinates": [-79.3378, 38.1058]}, "properties": {"rank": 221, "zone_id": "102", "location": "Rural (38.11\u00b0N)", "score": 35.1, "daily_kwh": 48000, "lmi_pct": "63%", "households": 633, "tier": "Tier3"}}, {"type": "Feature", "geometry": {"type": "Point", "coordinates": [-78.7821, 38.4725]}, "properties": {"rank": 222, "zone_id": "58", "location": "Rural (38.47\u00b0N)", "score": 34.9, "daily_kwh": 48000, "lmi_pct": "63%", "households": 940, "tier": "Tier3"}}, {"type": "Feature", "geometry": {"type": "Point", "coordinates": [-79.2411, 38.0052]}, "properties": {"rank": 223, "zone_id": "16", "location": "Rural (38.01\u00b0N)", "score": 34.6, "daily_kwh": 48000, "lmi_pct": "62%", "households": 3104, "tier": "Tier3"}}, {"type": "Feature", "geometry": {"type": "Point", "coordinates": [-78.0102, 37.4292]}, "properties": {"rank": 224, "zone_id": "82", "location": "Rural (37.43\u00b0N)", "score": 34.5, "daily_kwh": 48000, "lmi_pct": "62%", "households": 620, "tier": "Tier3"}}, {"type": "Feature", "geometry": {"type": "Point", "coordinates": [-76.5225, 37.3176]}, "properties": {"rank": 225, "zone_id": "255", "location": "Newport News", "score": 34.5, "daily_kwh": 48000, "lmi_pct": "54%", "households": 272, "tier": "Tier3"}}, {"type": "Feature", "geometry": {"type": "Point", "coordinates": [-77.5846, 38.8089]}, "properties": {"rank": 226, "zone_id": "146", "location": "Manassas", "score": 34.3, "daily_kwh": 48000, "lmi_pct": "52%", "households": 262, "tier": "Tier3"}}, {"type": "Feature", "geometry": {"type": "Point", "coordinates": [-77.347, 36.8399]}, "properties": {"rank": 227, "zone_id": "21", "location": "Rural (36.84\u00b0N)", "score": 34.3, "daily_kwh": 48000, "lmi_pct": "61%", "households": 2457, "tier": "Tier3"}}, {"type": "Feature", "geometry": {"type": "Point", "coordinates": [-76.5805, 36.8626]}, "properties": {"rank": 228, "zone_id": "199", "location": "Suffolk", "score": 34.0, "daily_kwh": 48000, "lmi_pct": "64%", "households": 320, "tier": "Tier3"}}, {"type": "Feature", "geometry": {"type": "Point", "coordinates": [-78.1501, 36.697]}, "properties": {"rank": 229, "zone_id": "29", "location": "Rural (36.70\u00b0N)", "score": 33.9, "daily_kwh": 48000, "lmi_pct": "60%", "households": 1812, "tier": "Tier3"}}, {"type": "Feature", "geometry": {"type": "Point", "coordinates": [-79.0997, 36.6317]}, "properties": {"rank": 230, "zone_id": "55", "location": "Danville", "score": 33.7, "daily_kwh": 48000, "lmi_pct": "60%", "households": 901, "tier": "Tier3"}}, {"type": "Feature", "geometry": {"type": "Point", "coordinates": [-78.8018, 38.2659]}, "properties": {"rank": 231, "zone_id": "182", "location": "Rural (38.27\u00b0N)", "score": 33.7, "daily_kwh": 48000, "lmi_pct": "60%", "households": 302, "tier": "Tier3"}}, {"type": "Feature", "geometry": {"type": "Point", "coordinates": [-77.5345, 38.2992]}, "properties": {"rank": 232, "zone_id": "256", "location": "Fredericksburg", "score": 33.4, "daily_kwh": 48000, "lmi_pct": "52%", "households": 260, "tier": "Tier3"}}, {"type": "Feature", "geometry": {"type": "Point", "coordinates": [-77.6534, 36.9902]}, "properties": {"rank": 233, "zone_id": "61", "location": "Rural (36.99\u00b0N)", "score": 33.3, "daily_kwh": 48000, "lmi_pct": "59%", "households": 886, "tier": "Tier3"}}, {"type": "Feature", "geometry": {"type": "Point", "coordinates": [-78.8529, 36.5794]}, "properties": {"rank": 234, "zone_id": "103", "location": "Rural (36.58\u00b0N)", "score": 33.1, "daily_kwh": 48000, "lmi_pct": "59%", "households": 586, "tier": "Tier3"}}, {"type": "Feature", "geometry": {"type": "Point", "coordinates": [-77.1567, 38.6919]}, "properties": {"rank": 235, "zone_id": "116", "location": "Alexandria", "score": 33.1, "daily_kwh": 48000, "lmi_pct": "58%", "households": 580, "tier": "Tier3"}}, {"type": "Feature", "geometry": {"type": "Point", "coordinates": [-78.1143, 38.1359]}, "properties": {"rank": 236, "zone_id": "92", "location": "Rural (38.14\u00b0N)", "score": 33.1, "daily_kwh": 48000, "lmi_pct": "58%", "households": 584, "tier": "Tier3"}}, {"type": "Feature", "geometry": {"type": "Point", "coordinates": [-76.9043, 37.1888]}, "properties": {"rank": 237, "zone_id": "96", "location": "Rural (37.19\u00b0N)", "score": 32.7, "daily_kwh": 48000, "lmi_pct": "58%", "households": 576, "tier": "Tier3"}}, {"type": "Feature", "geometry": {"type": "Point", "coordinates": [-78.81, 37.2876]}, "properties": {"rank": 238, "zone_id": "50", "location": "Rural (37.29\u00b0N)", "score": 32.7, "daily_kwh": 48000, "lmi_pct": "58%", "households": 864, "tier": "Tier3"}}, {"type": "Feature", "geometry": {"type": "Point", "coordinates": [-76.8465, 36.7126]}, "properties": {"rank": 239, "zone_id": "43", "location": "Suffolk", "score": 32.6, "daily_kwh": 48000, "lmi_pct": "57%", "households": 1140, "tier": "Tier3"}}, {"type": "Feature", "geometry": {"type": "Point", "coordinates": [-78.6176, 38.4118]}, "properties": {"rank": 240, "zone_id": "131", "location": "Rural (38.41\u00b0N)", "score": 32.2, "daily_kwh": 48000, "lmi_pct": "51%", "households": 255, "tier": "Tier3"}}, {"type": "Feature", "geometry": {"type": "Point", "coordinates": [-79.3817, 37.0015]}, "properties": {"rank": 241, "zone_id": "37", "location": "Rural (37.00\u00b0N)", "score": 32.1, "daily_kwh": 48000, "lmi_pct": "56%", "households": 1119, "tier": "Tier3"}}, {"type": "Feature", "geometry": {"type": "Point", "coordinates": [-76.4382, 37.7957]}, "properties": {"rank": 242, "zone_id": "53", "location": "Rural (37.80\u00b0N)", "score": 31.9, "daily_kwh": 48000, "lmi_pct": "56%", "households": 834, "tier": "Tier3"}}, {"type": "Feature", "geometry": {"type": "Point", "coordinates": [-78.673, 36.9234]}, "properties": {"rank": 243, "zone_id": "39", "location": "Rural (36.92\u00b0N)", "score": 31.6, "daily_kwh": 48000, "lmi_pct": "55%", "households": 1097, "tier": "Tier3"}}, {"type": "Feature", "geometry": {"type": "Point", "coordinates": [-78.6266, 38.7013]}, "properties": {"rank": 244, "zone_id": "114", "location": "Rural (38.70\u00b0N)", "score": 31.5, "daily_kwh": 48000, "lmi_pct": "55%", "households": 546, "tier": "Tier3"}}, {"type": "Feature", "geometry": {"type": "Point", "coordinates": [-76.0194, 36.9118]}, "properties": {"rank": 245, "zone_id": "241", "location": "Virginia Beach", "score": 31.4, "daily_kwh": 48000, "lmi_pct": "69%", "households": 346, "tier": "Tier3"}}, {"type": "Feature", "geometry": {"type": "Point", "coordinates": [-78.0231, 37.9978]}, "properties": {"rank": 246, "zone_id": "85", "location": "Rural (38.00\u00b0N)", "score": 31.3, "daily_kwh": 48000, "lmi_pct": "54%", "households": 541, "tier": "Tier3"}}, {"type": "Feature", "geometry": {"type": "Point", "coordinates": [-78.705, 38.0507]}, "properties": {"rank": 247, "zone_id": "277", "location": "Charlottesville", "score": 30.6, "daily_kwh": 48000, "lmi_pct": "64%", "households": 319, "tier": "Tier3"}}, {"type": "Feature", "geometry": {"type": "Point", "coordinates": [-76.412, 37.4074]}, "properties": {"rank": 248, "zone_id": "80", "location": "Rural (37.41\u00b0N)", "score": 30.2, "daily_kwh": 48000, "lmi_pct": "51%", "households": 514, "tier": "Tier3"}}, {"type": "Feature", "geometry": {"type": "Point", "coordinates": [-77.3191, 38.274]}, "properties": {"rank": 249, "zone_id": "220", "location": "Fredericksburg", "score": 29.3, "daily_kwh": 48000, "lmi_pct": "63%", "households": 316, "tier": "Tier3"}}, {"type": "Feature", "geometry": {"type": "Point", "coordinates": [-79.5133, 37.6745]}, "properties": {"rank": 250, "zone_id": "186", "location": "Rural (37.67\u00b0N)", "score": 28.3, "daily_kwh": 48000, "lmi_pct": "69%", "households": 346, "tier": "Tier3"}}, {"type": "Feature", "geometry": {"type": "Point", "coordinates": [-76.6716, 37.8477]}, "properties": {"rank": 251, "zone_id": "189", "location": "Rural (37.85\u00b0N)", "score": 28.1, "daily_kwh": 48000, "lmi_pct": "69%", "households": 346, "tier": "Tier3"}}, {"type": "Feature", "geometry": {"type": "Point", "coordinates": [-78.2422, 36.9824]}, "properties": {"rank": 252, "zone_id": "193", "location": "Rural (36.98\u00b0N)", "score": 27.0, "daily_kwh": 48000, "lmi_pct": "66%", "households": 330, "tier": "Tier3"}}, {"type": "Feature", "geometry": {"type": "Point", "coordinates": [-79.0599, 36.9463]}, "properties": {"rank": 253, "zone_id": "266", "location": "Rural (36.95\u00b0N)", "score": 27.0, "daily_kwh": 48000, "lmi_pct": "67%", "households": 337, "tier": "Tier3"}}, {"type": "Feature", "geometry": {"type": "Point", "coordinates": [-78.9469, 38.4757]}, "properties": {"rank": 254, "zone_id": "262", "location": "Rural (38.48\u00b0N)", "score": 25.0, "daily_kwh": 48000, "lmi_pct": "56%", "households": 279, "tier": "Tier3"}}, {"type": "Feature", "geometry": {"type": "Point", "coordinates": [-78.0372, 38.9697]}, "properties": {"rank": 255, "zone_id": "142", "location": "Rural (38.97\u00b0N)", "score": 24.8, "daily_kwh": 48000, "lmi_pct": "60%", "households": 298, "tier": "Tier3"}}, {"type": "Feature", "geometry": {"type": "Point", "coordinates": [-78.4069, 38.9858]}, "properties": {"rank": 256, "zone_id": "268", "location": "Rural (38.99\u00b0N)", "score": 24.7, "daily_kwh": 48000, "lmi_pct": "64%", "households": 320, "tier": "Tier3"}}, {"type": "Feature", "geometry": {"type": "Point", "coordinates": [-79.6254, 37.3962]}, "properties": {"rank": 257, "zone_id": "203", "location": "Rural (37.40\u00b0N)", "score": 24.5, "daily_kwh": 48000, "lmi_pct": "64%", "households": 320, "tier": "Tier3"}}, {"type": "Feature", "geometry": {"type": "Point", "coordinates": [-77.0317, 37.6374]}, "properties": {"rank": 258, "zone_id": "269", "location": "Rural (37.64\u00b0N)", "score": 24.3, "daily_kwh": 48000, "lmi_pct": "64%", "households": 318, "tier": "Tier3"}}, {"type": "Feature", "geometry": {"type": "Point", "coordinates": [-79.7824, 37.7238]}, "properties": {"rank": 259, "zone_id": "139", "location": "Rural (37.72\u00b0N)", "score": 24.0, "daily_kwh": 48000, "lmi_pct": "63%", "households": 316, "tier": "Tier3"}}, {"type": "Feature", "geometry": {"type": "Point", "coordinates": [-77.0829, 37.4725]}, "properties": {"rank": 260, "zone_id": "236", "location": "Hopewell", "score": 24.0, "daily_kwh": 48000, "lmi_pct": "63%", "households": 316, "tier": "Tier3"}}, {"type": "Feature", "geometry": {"type": "Point", "coordinates": [-76.9782, 38.1335]}, "properties": {"rank": 261, "zone_id": "191", "location": "Rural (38.13\u00b0N)", "score": 23.5, "daily_kwh": 48000, "lmi_pct": "63%", "households": 313, "tier": "Tier3"}}, {"type": "Feature", "geometry": {"type": "Point", "coordinates": [-78.4327, 37.1483]}, "properties": {"rank": 262, "zone_id": "132", "location": "Rural (37.15\u00b0N)", "score": 23.5, "daily_kwh": 48000, "lmi_pct": "62%", "households": 312, "tier": "Tier3"}}, {"type": "Feature", "geometry": {"type": "Point", "coordinates": [-78.4713, 36.8534]}, "properties": {"rank": 263, "zone_id": "265", "location": "Rural (36.85\u00b0N)", "score": 23.5, "daily_kwh": 48000, "lmi_pct": "62%", "households": 312, "tier": "Tier3"}}, {"type": "Feature", "geometry": {"type": "Point", "coordinates": [-76.4532, 37.6615]}, "properties": {"rank": 264, "zone_id": "135", "location": "Rural (37.66\u00b0N)", "score": 22.4, "daily_kwh": 48000, "lmi_pct": "61%", "households": 304, "tier": "Tier3"}}, {"type": "Feature", "geometry": {"type": "Point", "coordinates": [-78.1638, 38.2491]}, "properties": {"rank": 265, "zone_id": "238", "location": "Rural (38.25\u00b0N)", "score": 22.1, "daily_kwh": 48000, "lmi_pct": "60%", "households": 302, "tier": "Tier3"}}, {"type": "Feature", "geometry": {"type": "Point", "coordinates": [-78.0753, 36.9834]}, "properties": {"rank": 266, "zone_id": "125", "location": "Rural (36.98\u00b0N)", "score": 21.7, "daily_kwh": 48000, "lmi_pct": "60%", "households": 300, "tier": "Tier3"}}, {"type": "Feature", "geometry": {"type": "Point", "coordinates": [-78.2735, 37.975]}, "properties": {"rank": 267, "zone_id": "201", "location": "Charlottesville", "score": 21.7, "daily_kwh": 48000, "lmi_pct": "60%", "households": 299, "tier": "Tier3"}}, {"type": "Feature", "geometry": {"type": "Point", "coordinates": [-77.7674, 36.6599]}, "properties": {"rank": 268, "zone_id": "133", "location": "Rural (36.66\u00b0N)", "score": 20.2, "daily_kwh": 48000, "lmi_pct": "58%", "households": 289, "tier": "Tier3"}}, {"type": "Feature", "geometry": {"type": "Point", "coordinates": [-77.1899, 37.722]}, "properties": {"rank": 269, "zone_id": "181", "location": "Henrico", "score": 20.2, "daily_kwh": 48000, "lmi_pct": "58%", "households": 289, "tier": "Tier3"}}, {"type": "Feature", "geometry": {"type": "Point", "coordinates": [-77.0927, 38.288]}, "properties": {"rank": 270, "zone_id": "222", "location": "Rural (38.29\u00b0N)", "score": 20.0, "daily_kwh": 48000, "lmi_pct": "57%", "households": 288, "tier": "Tier3"}}, {"type": "Feature", "geometry": {"type": "Point", "coordinates": [-77.1216, 37.3575]}, "properties": {"rank": 271, "zone_id": "239", "location": "Hopewell", "score": 18.8, "daily_kwh": 48000, "lmi_pct": "56%", "households": 280, "tier": "Tier3"}}, {"type": "Feature", "geometry": {"type": "Point", "coordinates": [-76.8227, 38.1011]}, "properties": {"rank": 272, "zone_id": "190", "location": "Rural (38.10\u00b0N)", "score": 18.8, "daily_kwh": 48000, "lmi_pct": "56%", "households": 278, "tier": "Tier3"}}, {"type": "Feature", "geometry": {"type": "Point", "coordinates": [-76.3234, 37.5522]}, "properties": {"rank": 273, "zone_id": "205", "location": "Rural (37.55\u00b0N)", "score": 18.6, "daily_kwh": 48000, "lmi_pct": "56%", "households": 278, "tier": "Tier3"}}, {"type": "Feature", "geometry": {"type": "Point", "coordinates": [-77.7772, 37.2484]}, "properties": {"rank": 274, "zone_id": "161", "location": "Rural (37.25\u00b0N)", "score": 18.5, "daily_kwh": 48000, "lmi_pct": "56%", "households": 278, "tier": "Tier3"}}, {"type": "Feature", "geometry": {"type": "Point", "coordinates": [-77.7461, 38.9847]}, "properties": {"rank": 275, "zone_id": "207", "location": "Rural (38.98\u00b0N)", "score": 18.3, "daily_kwh": 48000, "lmi_pct": "55%", "households": 275, "tier": "Tier3"}}, {"type": "Feature", "geometry": {"type": "Point", "coordinates": [-79.7891, 37.5851]}, "properties": {"rank": 276, "zone_id": "138", "location": "Rural (37.59\u00b0N)", "score": 18.1, "daily_kwh": 48000, "lmi_pct": "55%", "households": 274, "tier": "Tier3"}}, {"type": "Feature", "geometry": {"type": "Point", "coordinates": [-78.247, 37.7871]}, "properties": {"rank": 277, "zone_id": "202", "location": "Rural (37.79\u00b0N)", "score": 17.7, "daily_kwh": 48000, "lmi_pct": "54%", "households": 272, "tier": "Tier3"}}, {"type": "Feature", "geometry": {"type": "Point", "coordinates": [-78.2039, 37.6012]}, "properties": {"rank": 278, "zone_id": "129", "location": "Rural (37.60\u00b0N)", "score": 17.5, "daily_kwh": 48000, "lmi_pct": "54%", "households": 271, "tier": "Tier3"}}, {"type": "Feature", "geometry": {"type": "Point", "coordinates": [-79.0772, 37.1382]}, "properties": {"rank": 279, "zone_id": "229", "location": "Lynchburg", "score": 17.4, "daily_kwh": 48000, "lmi_pct": "54%", "households": 270, "tier": "Tier3"}}, {"type": "Feature", "geometry": {"type": "Point", "coordinates": [-79.1762, 37.2792]}, "properties": {"rank": 280, "zone_id": "230", "location": "Lynchburg", "score": 17.2, "daily_kwh": 48000, "lmi_pct": "54%", "households": 268, "tier": "Tier3"}}, {"type": "Feature", "geometry": {"type": "Point", "coordinates": [-78.1554, 38.5024]}, "properties": {"rank": 281, "zone_id": "208", "location": "Rural (38.50\u00b0N)", "score": 16.7, "daily_kwh": 48000, "lmi_pct": "53%", "households": 264, "tier": "Tier3"}}, {"type": "Feature", "geometry": {"type": "Point", "coordinates": [-77.596, 37.3123]}, "properties": {"rank": 282, "zone_id": "136", "location": "Colonial Heights", "score": 16.7, "daily_kwh": 48000, "lmi_pct": "52%", "households": 260, "tier": "Tier3"}}, {"type": "Feature", "geometry": {"type": "Point", "coordinates": [-79.4439, 36.8364]}, "properties": {"rank": 283, "zone_id": "154", "location": "Danville", "score": 16.5, "daily_kwh": 48000, "lmi_pct": "53%", "households": 263, "tier": "Tier3"}}, {"type": "Feature", "geometry": {"type": "Point", "coordinates": [-77.8278, 38.6646]}, "properties": {"rank": 284, "zone_id": "227", "location": "Rural (38.66\u00b0N)", "score": 16.2, "daily_kwh": 48000, "lmi_pct": "52%", "households": 260, "tier": "Tier3"}}, {"type": "Feature", "geometry": {"type": "Point", "coordinates": [-77.4501, 38.0892]}, "properties": {"rank": 285, "zone_id": "233", "location": "Fredericksburg", "score": 15.8, "daily_kwh": 48000, "lmi_pct": "52%", "households": 258, "tier": "Tier3"}}, {"type": "Feature", "geometry": {"type": "Point", "coordinates": [-76.1648, 36.5811]}, "properties": {"rank": 286, "zone_id": "127", "location": "Chesapeake", "score": 15.8, "daily_kwh": 48000, "lmi_pct": "52%", "households": 258, "tier": "Tier3"}}, {"type": "Feature", "geometry": {"type": "Point", "coordinates": [-76.5293, 36.9896]}, "properties": {"rank": 287, "zone_id": "130", "location": "Newport News", "score": 15.8, "daily_kwh": 48000, "lmi_pct": "52%", "households": 258, "tier": "Tier3"}}, {"type": "Feature", "geometry": {"type": "Point", "coordinates": [-78.8586, 38.0]}, "properties": {"rank": 288, "zone_id": "143", "location": "Rural (38.00\u00b0N)", "score": 15.4, "daily_kwh": 48000, "lmi_pct": "51%", "households": 256, "tier": "Tier3"}}, {"type": "Feature", "geometry": {"type": "Point", "coordinates": [-78.0454, 38.3634]}, "properties": {"rank": 289, "zone_id": "204", "location": "Rural (38.36\u00b0N)", "score": 15.4, "daily_kwh": 48000, "lmi_pct": "51%", "households": 256, "tier": "Tier3"}}]}